SAOCOM 1A               
1 43641U 18076A   26068.82797447  .00001407  00000+0  18317-3 0  9994
2 43641  97.8894 256.9984 0001328  84.0114 276.1250 14.82173547401381
H-2A R/B                
1 43682U 18084L   26068.60301080  .00020990  00000+0  49941-3 0  9993
2 43682  98.8729 285.9721 0025468  25.6211 334.6287 15.41344491405765
SAOCOM 1B               
1 46265U 20059A   26065.95626301  .00001349  00000+0  17595-3 0  9996
2 46265  97.8885 253.2654 0001504  81.2285 278.9098 14.82173062298346
CSS (TIANHE)            
1 48274U 21035A   26068.58759433  .00025302  00000+0  29943-3 0  9993
2 48274  41.4666 208.7841 0006982 272.7102  87.2938 15.60651211277595
COSMOS 2550             
1 48865U 21056A   26067.47400841 -.00000192  00000+0 -13338-7 0  9992
2 48865  67.1451  44.6088 0008369 269.6014  90.4182 15.33829151263273
CZ-2C R/B               
1 52794U 22058K   26068.12659810  .00042727  00000+0  62256-3 0  9993
2 52794  50.1894 321.1865 0042159 198.4704 161.4738 15.54191438210044
CZ-2C R/B               
1 54039U 22132E   26068.56386821  .00039978  00000+0  45659-3 0  9999
2 54039  97.2972  71.8768 0020632  91.8631 268.4991 15.61827128190355
GSLV R/B                
1 54149U 22138AN  26068.72082442  .00003719  00000+0  32105-3 0  9993
2 54149  87.3876 166.3520 0023020 146.6269 213.6419 14.96774296183933
XRISM                   
1 57800U 23137A   26068.83873385  .00006580  00000+0  37325-3 0  9994
2 57800  31.0015 282.7003 0008004  40.1535 319.9694 15.11504468137810
ACS3                    
1 59588U 24077B   26068.85800634  .00024067  00000+0  19338-1 0  9994
2 59588  97.2069   9.9321 0059813  76.3545 284.4270 13.89619440 94229
SZ-21 MODULE            
1 66515U 25246C   26067.73638915  .00047754  00000+0  41113-3 0  9994
2 66515  41.4736 209.2286 0001365 296.9264  63.1439 15.68463397 17929
